BEIJING 1               
1 28890U 05043A   26064.29658422  .00000508  00000+0  10754-3 0  9997
2 28890  98.2723 197.0351 0013460 245.0677 114.9127 14.63455266 85450
HUANJING 1A (HJ-1A)     
1 33320U 08041A   26064.25163955  .00003016  00000+0  36974-3 0  9999
2 33320  97.6626  54.1646 0020501 117.2955 243.0350 14.83703443942990
HUANJING 1B (HJ-1B)     
1 33321U 08041B   26064.31055081  .00001348  00000+0  16993-3 0  9992
2 33321  97.6471  57.6965 0036699 161.9838 198.2687 14.83088759943016
YAOGAN-4                
1 33446U 08061A   26064.26674531  .00001982  00000+0  25021-3 0  9999
2 33446  97.9246 358.6019 0015564  52.6056 307.6572 14.82962230930263
DEIMOS-1                
1 35681U 09041A   26064.27128433  .00000916  00000+0  14288-3 0  9996
2 35681  97.7244 226.0834 0002075 124.3332 235.8074 14.75106385891563
UK-DMC 2                
1 35683U 09041C   26064.29687425  .00001495  00000+0  22521-3 0  9993
2 35683  97.8644 201.9181 0001085  91.5850 268.5484 14.75840430891246
DMC3-FM1                
1 40715U 15032A   26064.28299709  .00000673  00000+0  83720-4 0  9991
2 40715  97.6622 293.4440 0006782  45.2090 314.9676 14.85604720574481
DMC3-FM2                
1 40716U 15032B   26064.23798968  .00000551  00000+0  69571-4 0  9991
2 40716  97.6676 294.9027 0007289  49.1305 311.0541 14.85606516574476
DMC3-FM3                
1 40717U 15032C   26064.26106248  .00001126  00000+0  13604-3 0  9993
2 40717  97.6730 296.6105 0006557  50.0476 310.1315 14.85607033574486
