[{"OBJECT_NAME":"BEIJING 1","OBJECT_ID":"2005-043A","EPOCH":"2026-03-05T07:07:04.876608","MEAN_MOTION":14.63455266,"ECCENTRICITY":0.00134604,"INCLINATION":98.2723,"RA_OF_ASC_NODE":197.0351,"ARG_OF_PERICENTER":245.0677,"MEAN_ANOMALY":114.9127,"EPHEMERIS_TYPE":0,"CLASSIFICATION_TYPE":"U","NORAD_CAT_ID":28890,"ELEMENT_SET_NO":999,"REV_AT_EPOCH":8545,"BSTAR":0.00010754273,"MEAN_MOTION_DOT":5.08e-6,"MEAN_MOTION_DDOT":0},{"OBJECT_NAME":"HUANJING 1A (HJ-1A)","OBJECT_ID":"2008-041A","EPOCH":"2026-03-05T06:02:21.657120","MEAN_MOTION":14.83703443,"ECCENTRICITY":0.00205011,"INCLINATION":97.6626,"RA_OF_ASC_NODE":54.1646,"ARG_OF_PERICENTER":117.2955,"MEAN_ANOMALY":243.035,"EPHEMERIS_TYPE":0,"CLASSIFICATION_TYPE":"U","NORAD_CAT_ID":33320,"ELEMENT_SET_NO":999,"REV_AT_EPOCH":94299,"BSTAR":0.00036973705,"MEAN_MOTION_DOT":3.016e-5,"MEAN_MOTION_DDOT":0},{"OBJECT_NAME":"HUANJING 1B (HJ-1B)","OBJECT_ID":"2008-041B","EPOCH":"2026-03-05T07:27:11.589984","MEAN_MOTION":14.83088759,"ECCENTRICITY":0.00366993,"INCLINATION":97.6471,"RA_OF_ASC_NODE":57.6965,"ARG_OF_PERICENTER":161.9838,"MEAN_ANOMALY":198.2687,"EPHEMERIS_TYPE":0,"CLASSIFICATION_TYPE":"U","NORAD_CAT_ID":33321,"ELEMENT_SET_NO":999,"REV_AT_EPOCH":94301,"BSTAR":0.00016993175,"MEAN_MOTION_DOT":1.348e-5,"MEAN_MOTION_DDOT":0},{"OBJECT_NAME":"YAOGAN-4","OBJECT_ID":"2008-061A","EPOCH":"2026-03-05T06:24:06.794784","MEAN_MOTION":14.8296223,"ECCENTRICITY":0.00155644,"INCLINATION":97.9246,"RA_OF_ASC_NODE":358.6019,"ARG_OF_PERICENTER":52.6056,"MEAN_ANOMALY":307.6572,"EPHEMERIS_TYPE":0,"CLASSIFICATION_TYPE":"U","NORAD_CAT_ID":33446,"ELEMENT_SET_NO":999,"REV_AT_EPOCH":93026,"BSTAR":0.00025020655,"MEAN_MOTION_DOT":1.982e-5,"MEAN_MOTION_DDOT":0},{"OBJECT_NAME":"DEIMOS-1","OBJECT_ID":"2009-041A","EPOCH":"2026-03-05T06:30:38.966112","MEAN_MOTION":14.75106385,"ECCENTRICITY":0.00020758,"INCLINATION":97.7244,"RA_OF_ASC_NODE":226.0834,"ARG_OF_PERICENTER":124.3332,"MEAN_ANOMALY":235.8074,"EPHEMERIS_TYPE":0,"CLASSIFICATION_TYPE":"U","NORAD_CAT_ID":35681,"ELEMENT_SET_NO":999,"REV_AT_EPOCH":89156,"BSTAR":0.00014287822,"MEAN_MOTION_DOT":9.16e-6,"MEAN_MOTION_DDOT":0},{"OBJECT_NAME":"UK-DMC 2","OBJECT_ID":"2009-041C","EPOCH":"2026-03-05T07:07:29.935200","MEAN_MOTION":14.7584043,"ECCENTRICITY":0.00010854,"INCLINATION":97.8644,"RA_OF_ASC_NODE":201.9181,"ARG_OF_PERICENTER":91.585,"MEAN_ANOMALY":268.5484,"EPHEMERIS_TYPE":0,"CLASSIFICATION_TYPE":"U","NORAD_CAT_ID":35683,"ELEMENT_SET_NO":999,"REV_AT_EPOCH":89124,"BSTAR":0.0002252109,"MEAN_MOTION_DOT":1.495e-5,"MEAN_MOTION_DDOT":0},{"OBJECT_NAME":"DMC3-FM1","OBJECT_ID":"2015-032A","EPOCH":"2026-03-05T06:47:30.948576","MEAN_MOTION":14.8560472,"ECCENTRICITY":0.00067822,"INCLINATION":97.6622,"RA_OF_ASC_NODE":293.444,"ARG_OF_PERICENTER":45.209,"MEAN_ANOMALY":314.9676,"EPHEMERIS_TYPE":0,"CLASSIFICATION_TYPE":"U","NORAD_CAT_ID":40715,"ELEMENT_SET_NO":999,"REV_AT_EPOCH":57448,"BSTAR":8.372003e-5,"MEAN_MOTION_DOT":6.73e-6,"MEAN_MOTION_DDOT":0},{"OBJECT_NAME":"DMC3-FM2","OBJECT_ID":"2015-032B","EPOCH":"2026-03-05T05:42:42.308352","MEAN_MOTION":14.85606516,"ECCENTRICITY":0.00072899,"INCLINATION":97.6676,"RA_OF_ASC_NODE":294.9027,"ARG_OF_PERICENTER":49.1305,"MEAN_ANOMALY":311.0541,"EPHEMERIS_TYPE":0,"CLASSIFICATION_TYPE":"U","NORAD_CAT_ID":40716,"ELEMENT_SET_NO":999,"REV_AT_EPOCH":57447,"BSTAR":6.9570565e-5,"MEAN_MOTION_DOT":5.51e-6,"MEAN_MOTION_DDOT":0},{"OBJECT_NAME":"DMC3-FM3","OBJECT_ID":"2015-032C","EPOCH":"2026-03-05T06:15:55.798272","MEAN_MOTION":14.85607033,"ECCENTRICITY":0.00065577,"INCLINATION":97.673,"RA_OF_ASC_NODE":296.6105,"ARG_OF_PERICENTER":50.0476,"MEAN_ANOMALY":310.1315,"EPHEMERIS_TYPE":0,"CLASSIFICATION_TYPE":"U","NORAD_CAT_ID":40717,"ELEMENT_SET_NO":999,"REV_AT_EPOCH":57448,"BSTAR":0.00013604102,"MEAN_MOTION_DOT":1.126e-5,"MEAN_MOTION_DDOT":0}]
